NOAA 15                 
1 25338U 98030A   21304.76410651  .00000084  00000-0  53505-4 0  9995
2 25338  98.6711 331.9984 0009474 240.8500 119.1732 14.26066672220676
DMSP 5D-3 F15 (USA 147) 
1 25991U 99067A   21304.56326934  .00000091  00000-0  68596-4 0  9993
2 25991  99.0324 287.4993 0011005 115.4547  37.3742 14.16476921131362
METEOSAT-8 (MSG-1)      
1 27509U 02040B   21303.93619237  .00000147  00000-0  00000-0 0  9990
2 27509   7.6166  51.8133 0002046 165.1108 201.0645  1.00264333 70317
DMSP 5D-3 F16 (USA 172) 
1 28054U 03048A   21304.78377524  .00000058  00000-0  54532-4 0  9993
2 28054  98.9685 289.6837 0006512 241.6411 245.9659 14.13640966930723
NOAA 18                 
1 28654U 05018A   21304.72123285  .00000119  00000-0  88668-4 0  9990
2 28654  98.9797  10.0313 0013370 256.3100 103.6583 14.12652139847778
METEOSAT-9 (MSG-2)      
1 28912U 05049B   21304.14394612  .00000029  00000-0  00000-0 0  9991
2 28912   5.5050  67.6615 0000657 150.4216 237.0469  1.00267190 58096
FORMOSAT-3 FM6          
1 29047U 06011A   21304.34750307  .00000268  00000-0  12110-3 0  9993
2 29047  71.9774 167.5480 0052201 277.7104  81.8107 14.28854982812836
FORMOSAT-3 FM1          
1 29048U 06011B   21304.09859885  .00000229  00000-0  10612-3 0  9999
2 29048  71.9662  78.3793 0045285 238.9329 120.7359 14.28814998815277
FORMOSAT-3 FM5          
1 29049U 06011C   21304.56239506  .00000192  00000-0  91893-4 0  9994
2 29049  72.0201 251.9305 0037151 259.4522 100.2428 14.28897747811137
FORMOSAT-3 FM3          
1 29050U 06011D   21304.40413933  .00000445  00000-0  10318-3 0  9990
2 29050  72.0167 347.0711 0048065 136.0977 224.4011 14.59149881829373
FORMOSAT-3 FM4          
1 29051U 06011E   21304.34070739  .00000191  00000-0  89461-4 0  9991
2 29051  72.0034 153.4703 0067019 139.8077 220.8044 14.28929292813680
FORMOSAT-3 FM2          
1 29052U 06011F   21304.51309675  .00000170  00000-0  82605-4 0  9995
2 29052  72.0348 228.8157 0041514 219.1816 140.6314 14.29038895812098
EWS-G1 (GOES 13)        
1 29155U 06018A   21304.52827433  .00000044  00000-0  00000-0 0  9999
2 29155   0.2052 107.6247 0007194 116.1051  68.0349  1.00270230 26436
METOP-A                 
1 29499U 06044A   21304.86979167  .00000058  00000-0  45596-4 0  9996
2 29499  98.4579 338.5984 0000671 114.9924 245.1677 14.21515905780113
DMSP 5D-3 F17 (USA 191) 
1 29522U 06050A   21304.81486370  .00000091  00000-0  70626-4 0  9993
2 29522  98.7797 319.0392 0009713 185.9453 174.1606 14.14050532773581
FENGYUN 3A              
1 32958U 08026A   21304.67706944  .00000048  00000-0  43298-4 0  9998
2 32958  98.4693 272.0948 0008237 332.0706  28.0027 14.18673512695895
FENGYUN 2E              
1 33463U 08066A   21304.37573396 -.00000192  00000-0  00000-0 0  9995
2 33463   5.4030  66.5287 0002960 330.4328 224.6747  1.00277314 47140
NOAA 19                 
1 33591U 09005A   21304.76855210  .00000104  00000-0  81273-4 0  9999
2 33591  99.1753 328.8021 0014828 109.1995 251.0782 14.12504627656169
GOES 14                 
1 35491U 09033A   21304.52867093 -.00000087  00000-0  00000-0 0  9993
2 35491   0.2771 282.9848 0015848 295.4119 267.7608  1.00271397 45172
METEOR-M 1              
1 35865U 09049A   21304.20185841  .00000053  00000-0  42998-4 0  9992
2 35865  98.4973 277.4872 0002608 148.2857 211.8479 14.22289113628952
DMSP 5D-3 F18 (USA 210) 
1 35951U 09057A   21304.75811630  .00000141  00000-0  97593-4 0  9998
2 35951  98.6961 285.1441 0011648  23.7345 336.4363 14.13408220620813
GOES 15                 
1 36411U 10008A   21304.54825160  .00000063  00000-0  00000-0 0  9994
2 36411   0.3049 276.0728 0000658 319.3251 233.6555  1.00269398 42731
COMS 1                  
1 36744U 10032A   21304.57479906 -.00000336  00000-0  00000-0 0  9990
2 36744   0.5060  96.0283 0000869  96.2830 182.9393  1.00277897 34144
FENGYUN 3B              
1 37214U 10059A   21304.83557143  .00000007  00000-0  27272-4 0  9999
2 37214  99.0886 301.6127 0016052 289.7139  70.2307 14.16004144568634
SUOMI NPP               
1 37849U 11061A   21304.76478545  .00000035  00000-0  37648-4 0  9996
2 37849  98.7481 241.6715 0000560  86.4671 357.5683 14.19525401518743
FENGYUN 2F              
1 38049U 12002A   21304.59622162 -.00000347  00000-0  00000-0 0  9997
2 38049   3.2358  81.2811 0001950  12.2852 273.3552  1.00266144 35945
METEOSAT-10 (MSG-3)     
1 38552U 12035B   21304.33729769  .00000068  00000-0  00000-0 0  9994
2 38552   1.2673  23.6908 0002170 177.7298 329.1215  1.00268893 33919
METOP-B                 
1 38771U 12049A   21304.80549031  .00000042  00000-0  39086-4 0  9998
2 38771  98.6992   3.0504 0001115  38.6600  78.3942 14.21490640473248
FENGYUN 3C              
1 39260U 13052A   21304.80619723  .00000018  00000-0  30028-4 0  9993
2 39260  98.4840 339.1774 0010293 209.1389 150.9201 14.15883067419562
METEOR-M 2              
1 40069U 14037A   21304.85516594 -.00000030  00000-0  55373-5 0  9999
2 40069  98.4513 327.8964 0004368 267.4625  92.6050 14.20690403379407
HIMAWARI-8              
1 40267U 14060A   21304.53011021 -.00000269  00000-0  00000-0 0  9991
2 40267   0.0189 128.9661 0001034 119.0963 123.5007  1.00267916 25815
FENGYUN 2G              
1 40367U 14090A   21304.58591062 -.00000289  00000-0  00000-0 0  9990
2 40367   1.3610  91.4498 0002603 260.4163 358.4135  1.00260538 25057
METEOSAT-11 (MSG-4)     
1 40732U 15034A   21304.21494174  .00000002  00000-0  00000-0 0  9993
2 40732   0.4038 111.5220 0001059  22.0038 343.3892  1.00267727 23082
ELEKTRO-L 2             
1 41105U 15074A   21304.35567377 -.00000105  00000-0  00000-0 0  9998
2 41105   2.4125  90.7825 0002743 105.6372 317.0929  1.00272555 21571
HIMAWARI-9              
1 41836U 16064A   21304.72757705 -.00000266  00000-0  00000+0 0  9993
2 41836   0.0283 128.3806 0001357 110.4099 204.1791  1.00275414 18361
GOES 16                 
1 41866U 16071A   21304.55889222 -.00000241  00000-0  00000-0 0  9999
2 41866   0.0516  73.5107 0000747 193.1081 259.4557  1.00274375 18176
FENGYUN 4A              
1 41882U 16077A   21304.49111632 -.00000323  00000-0  00000-0 0  9990
2 41882   0.1549 286.7062 0005049 122.7530 272.0078  1.00273653 18038
CYGFM05                 
1 41884U 16078A   21304.08584853  .00001730  00000-0  91382-4 0  9996
2 41884  34.9553 188.9127 0015957 201.6122 158.3917 15.15243498269961
CYGFM04                 
1 41885U 16078B   21304.34779079  .00001654  00000-0  86218-4 0  9999
2 41885  34.9485 177.7661 0014588 218.4176 141.5497 15.15754505270032
CYGFM02                 
1 41886U 16078C   21304.34130904  .00001656  00000-0  86297-4 0  9997
2 41886  34.9577 179.8949 0015251 213.2393 146.7361 15.15754521270113
CYGFM01                 
1 41887U 16078D   21304.77959075  .00001595  00000-0  84867-4 0  9996
2 41887  34.9520 186.5696 0016522 207.3078 152.6765 15.15032641270141
CYGFM08                 
1 41888U 16078E   21304.36934952  .00001672  00000-0  87831-4 0  9999
2 41888  34.9492 182.7861 0015785 213.7464 146.2243 15.15454392270086
CYGFM06                 
1 41889U 16078F   21303.86127609  .00001774  00000-0  92369-4 0  9992
2 41889  34.9569 181.5824 0014170 209.1017 150.8906 15.15747841269986
CYGFM07                 
1 41890U 16078G   21304.36718291  .00001703  00000-0  88750-4 0  9994
2 41890  34.9508 177.3009 0014060 217.5382 142.4349 15.15743788270048
CYGFM03                 
1 41891U 16078H   21304.36498606  .00001729  00000-0  90097-4 0  9995
2 41891  34.9540 177.7184 0013534 215.8802 144.1001 15.15739676270030
FENGYUN 3D              
1 43010U 17072A   21304.79015405  .00000040  00000-0  39888-4 0  9990
2 43010  98.8014 245.8200 0002599  76.9920 283.1546 14.19781892205331
NOAA 20                 
1 43013U 17073A   21304.85314485  .00000042  00000-0  40793-4 0  9990
2 43013  98.7313 241.4740 0001026  68.0509 292.0776 14.19559067204795
GOES 17                 
1 43226U 18022A   21304.52539181  .00000105  00000-0  00000-0 0  9990
2 43226   0.0312 279.0652 0000391 322.6474 210.2823  1.00272727 13467
FENGYUN 2H              
1 43491U 18050A   21304.55743838 -.00000121  00000-0  00000-0 0  9993
2 43491   0.5707 103.4626 0003577  44.9194 171.6212  1.00273512 12494
METOP-C                 
1 43689U 18087A   21304.74875812  .00000038  00000-0  37424-4 0  9991
2 43689  98.7190   3.0153 0002620   3.0269 357.0923 14.21484272154811
GEO-KOMPSAT-2A          
1 43823U 18100A   21304.57479906 -.00000337  00000-0  00000-0 0  9991
2 43823   0.0152 256.1606 0002086 355.8753 123.2401  1.00268350 10670
METEOR-M2 2             
1 44387U 19038A   21304.81479044 -.00000009  00000-0  15129-4 0  9996
2 44387  98.6886 262.8521 0000844 152.3689 207.7535 14.23693072120873
FENGYUN 3E              
1 49008U 21062A   21304.89955185 -.00000019  00000-0  11512-4 0  9997
2 49008  98.7070 305.5245 0001224 341.2784  18.8353 14.19814165 16887